NORAD_CAT_ID,OBJECT_NAME,OBJECT_TYPE,EPOCH,MEAN_MOTION,ECCENTRICITY,INCLINATION,RA_OF_ASC_NODE,ARG_OF_PERICENTER,MEAN_ANOMALY,BSTAR,MEAN_MOTION_DOT,MEAN_MOTION_DDOT,TLE_LINE0,TLE_LINE1,TLE_LINE2,SEMIMAJOR_AXIS,PERIOD,APOGEE,PERIGEE,DECAYED
51131.0,STARLINK-3388,PAYLOAD,2022-02-02 22:00:00,15.78228744,0.000111,53.2172,200.9011,76.6068,81.4035,-0.0050908,-0.00811412,0.0,0 STARLINK-3388,1 51131U 22005AD  22033.91667824 -.00811412  00000-0 -50908-2 0  9996,2 51131  53.2172 200.9011 0001110  76.6068  81.4035 15.78228744  2801,6713.596,91.242,336.206,334.716,0.0
51131.0,STARLINK-3388,PAYLOAD,2022-02-03 06:00:00,15.77647318,0.0001124,53.2175,199.2378,75.0896,177.5385,-0.0052772,-0.00818617,0.0,0 STARLINK-3388,1 51131U 22005AD  22034.25001157 -.00818617  00000-0 -52772-2 0  9990,2 51131  53.2175 199.2378 0001124  75.0896 177.5385 15.77647318  3714,6715.245,91.275,337.865,336.356,0.0
51131.0,STARLINK-3388,PAYLOAD,2022-02-03 14:00:01,15.77063556,0.0001126,53.2176,197.5787,58.3991,288.1419,-0.0054438,-0.00822247,0.0,0 STARLINK-3388,1 51131U 22005AD  22034.58334491 -.00822247  00000-0 -54438-2 0  9991,2 51131  53.2176 197.5787 0001126  58.3991 288.1419 15.77063556  2916,6716.901999999999,91.309,339.524,338.011,0.0
51131.0,STARLINK-3388,PAYLOAD,2022-02-03 22:00:01,15.76474808,0.0001132,53.2174,195.9217,57.4046,22.4122,-0.0055481,-0.00816787,0.0,0 STARLINK-3388,1 51131U 22005AD  22034.91668981 -.00816787  00000-0 -55481-2 0  9993,2 51131  53.2174 195.9217 0001132  57.4046  22.4122 15.76474808  2973,6718.575,91.343,341.2,339.6790000000001,0.0
51131.0,STARLINK-3388,PAYLOAD,2022-02-04 06:00:00,15.75888409,0.0001228,53.2174,194.2628,59.5186,112.7399,-0.0056853,-0.00815613,0.0,0 STARLINK-3388,1 51131U 22005AD  22035.25001157 -.00815613  00000-0 -56853-2 0  9998,2 51131  53.2174 194.2628 0001228  59.5186 112.7399 15.75888409  3868,6720.241,91.377,342.932,341.281,0.0
51131.0,STARLINK-3388,PAYLOAD,2022-02-04 14:00:01,15.7530453,0.0001291,53.2176,192.6083,57.1451,206.9796,-0.0058615,-0.00819151,0.0,0 STARLINK-3388,1 51131U 22005AD  22035.58335648 -.00819151  00000-0 -58615-2 0  9998,2 51131  53.2176 192.6083 0001291  57.1451 206.9796 15.75304530  3074,6721.901999999999,91.411,344.635,342.899,0.0
51131.0,STARLINK-3388,PAYLOAD,2022-02-04 22:00:00,15.74720567,0.0001005,53.2172,190.9557,71.3324,283.8227,-0.0060316,-0.00821278,0.0,0 STARLINK-3388,1 51131U 22005AD  22035.91667824 -.00821278  00000-0 -60316-2 0  9993,2 51131  53.2172 190.9557 0001005  71.3324 283.8227 15.74720567  3138,6723.563,91.445,346.10400000000016,344.75300000000016,0.0
51131.0,STARLINK-3388,PAYLOAD,2022-02-05 06:00:00,15.74134336,0.000118,53.2175,189.301,51.9371,33.6136,-0.0061939,-0.0082202999999999,0.0,0 STARLINK-3388,1 51131U 22005AD  22036.25001157 -.00822030  00000-0 -61939-2 0  9991,2 51131  53.2175 189.3010 0001180  51.9371  33.6136 15.74134336  4029,6725.233,91.479,347.891,346.30400000000014,0.0
51131.0,STARLINK-3388,PAYLOAD,2022-02-05 14:00:01,15.73375257,0.0001426,53.2176,187.6507,45.0379,130.2301,-0.0018468,-0.00254042,0.0,0 STARLINK-3388,1 51131U 22005AD  22036.58334491 -.00254042  00000-0 -18468-2 0  9998,2 51131  53.2176 187.6507 0001426  45.0379 130.2301 15.73375257  4078,6727.396,91.523,350.22,348.301,0.0
51131.0,STARLINK-3388,PAYLOAD,2022-02-05 20:00:01,15.732014499999998,0.0001227,53.2176,186.4145,60.6615,91.3985,3.939e-05,4.912e-05,0.0,0 STARLINK-3388,1 51131U 22005AD  22036.83334491  .00004912  00000-0  39390-4 0  9992,2 51131  53.2176 186.4145 0001227  60.6615  91.3985 15.73201450  4111,6727.891,91.533,350.582,348.931,0.0
51131.0,STARLINK-3388,PAYLOAD,2022-02-06 16:42:03,15.7330437,0.0001982,53.2224,182.1588,33.3407,326.7737,0.00037351,0.00052364,0.0,0 STARLINK-3388,1 51131U 22005AD  22037.69587817  .00052364  00000-0  37351-3 0  9997,2 51131  53.2224 182.1588 0001982  33.3407 326.7737 15.73304370  4253,6727.598000000001,91.527,350.796,348.129,0.0
51131.0,STARLINK-3388,PAYLOAD,2022-02-06 21:16:31,15.73236875,0.0002794,53.2214,181.2148,29.2693,330.8483,0.00010013,0.00013477,0.0,0 STARLINK-3388,1 51131U 22005AD  22037.88647037  .00013477  00000-0  10013-3 0  9997,2 51131  53.2214 181.2148 0002794  29.2693 330.8483 15.73236875  3164,6727.79,91.531,351.535,347.775,0.0
51131.0,STARLINK-3388,PAYLOAD,2022-02-07 09:28:21,15.731923000000002,0.000127,53.2211,178.7008,8.1851,351.9190000000001,3.9696e-05,4.953e-05,0.0,0 STARLINK-3388,1 51131U 22005AD  22038.39469757  .00004953  00000-0  39696-4 0  9993,2 51131  53.2211 178.7008 0001270   8.1851 351.9190 15.73192300  4363,6727.917,91.534,350.63699999999994,348.92800000000005,0.0
51131.0,STARLINK-3388,PAYLOAD,2022-02-07 15:34:17,15.73184338,0.0001631,53.2199,177.4428,52.8656,307.2513,-3.6129e-05,-5.684e-05,0.0,0 STARLINK-3388,1 51131U 22005AD  22038.64881420 -.00005684  00000-0 -36129-4 0  9998,2 51131  53.2199 177.4428 0001631  52.8656 307.2513 15.73184338  3285,6727.94,91.534,350.902,348.708,0.0
51131.0,STARLINK-3388,PAYLOAD,2022-02-09 11:47:12,15.73229711,0.0001781,53.2179,168.3256,48.5857,311.5316,0.00012546,0.00017045,0.0,0 STARLINK-3388,1 51131U 22005AD  22040.49111553  .00017045  00000-0  12546-3 0  9995,2 51131  53.2179 168.3256 0001781  48.5857 311.5316 15.73229711  4692,6727.81,91.531,350.874,348.477,0.0
51131.0,STARLINK-3388,PAYLOAD,2022-02-09 14:50:10,15.73209669,0.0001935,53.2182,167.6978,53.6014,306.5184,-1.3477e-05,-2.513e-05,0.0,0 STARLINK-3388,1 51131U 22005AD  22040.61817447 -.00002513  00000-0 -13477-4 0  9995,2 51131  53.2182 167.6978 0001935  53.6014 306.5184 15.73209669  3597,6727.868,91.533,351.034,348.431,0.0
51131.0,STARLINK-3388,PAYLOAD,2022-02-09 20:00:01,15.73179378,0.0002168,53.2174,166.635,40.6161,98.8279,0.00045193,0.00063231,0.0,0 STARLINK-3388,1 51131U 22005AD  22040.83334491  .00063231  00000-0  45193-3 0  9993,2 51131  53.2174 166.6350 0002168  40.6161  98.8279 15.73179378  4746,6727.954000000002,91.534,351.278,348.36,0.0
51131.0,STARLINK-3388,PAYLOAD,2022-02-10 06:00:00,15.73205105,0.0002155,53.2174,164.5555,49.4238,291.0152,-1.0650999999999997e-05,-2.116e-05,0.0,0 STARLINK-3388,1 51131U 22005AD  22041.25001157 -.00002116  00000-0 -10651-4 0  9999,2 51131  53.2174 164.5555 0002155  49.4238 291.0152 15.73205105  4811,6727.880999999999,91.533,351.195,348.296,0.0
51131.0,STARLINK-3388,PAYLOAD,2022-02-10 13:42:23,15.73206633,0.0002054,53.2167,162.9835,34.2102,325.905,0.00011406,0.00015421,0.0,0 STARLINK-3388,1 51131U 22005AD  22041.57110405  .00015421  00000-0  11406-3 0  9990,2 51131  53.2167 162.9835 0002054  34.2102 325.9050 15.73206633  3748,6727.876,91.533,351.12300000000016,348.3590000000001,0.0
51131.0,STARLINK-3388,PAYLOAD,2022-02-10 14:00:01,15.73216852,0.0002101,53.2173,162.9235,37.8549,31.6741,0.00010825,0.00014609,0.0,0 STARLINK-3388,1 51131U 22005AD  22041.58335648  .00014609  00000-0  10825-3 0  9990,2 51131  53.2173 162.9235 0002101  37.8549  31.6741 15.73216852  4862,6727.847,91.532,351.126,348.2990000000001,0.0
51131.0,STARLINK-3388,PAYLOAD,2022-02-10 19:48:18,15.73228396,0.0001749,53.2171,161.7234,25.6649,334.4458,0.00025317,0.00035103,0.0,0 STARLINK-3388,1 51131U 22005AD  22041.82521365  .00035103  00000-0  25317-3 0  9994,2 51131  53.2171 161.7234 0001749  25.6649 334.4458 15.73228396  3784,6727.814,91.532,350.856,348.50300000000016,0.0
51131.0,STARLINK-3388,PAYLOAD,2022-02-11 14:00:01,15.73318824,0.0001975,53.2176,157.9746,23.7109,312.7618,-0.00086595,-0.00121043,0.0,0 STARLINK-3388,1 51131U 22005AD  22042.58334491 -.00121043  00000-0 -86595-3 0  9996,2 51131  53.2176 157.9746 0001975  23.7109 312.7618 15.73318824  5027,6727.556,91.526,350.75,348.093,0.0
51131.0,STARLINK-3388,PAYLOAD,2022-02-11 14:06:01,15.7328402,0.0001984,53.217,157.9528,28.6688,331.4441,0.00017675,0.00024347,0.0,0 STARLINK-3388,1 51131U 22005AD  22042.58751782  .00024347  00000-0  17675-3 0  9992,2 51131  53.2170 157.9528 0001984  28.6688 331.4441 15.73284020  3902,6727.656,91.528,350.855,348.186,0.0
51131.0,STARLINK-3388,PAYLOAD,2022-02-11 22:00:01,15.73227691,0.000204,53.2174,156.3248,18.1716,47.36,0.00012611,0.00017135,0.0,0 STARLINK-3388,1 51131U 22005AD  22042.91668981  .00017135  00000-0  12611-3 0  9999,2 51131  53.2174 156.3248 0002040  18.1716  47.3600 15.73227691  3730,6727.816,91.532,351.05400000000014,348.309,0.0
51131.0,STARLINK-3388,PAYLOAD,2022-02-12 06:00:00,15.73247397,0.0001965,53.2176,154.6739,27.249,127.1612,-0.0010198,-0.0014165999999999,0.0,0 STARLINK-3388,1 51131U 22005AD  22043.25001157 -.00141660  00000-0 -10198-2 0  9993,2 51131  53.2176 154.6739 0001965  27.2490 127.1612 15.73247397  5123,6727.76,91.53,350.94699999999995,348.30300000000005,0.0
51131.0,STARLINK-3388,PAYLOAD,2022-02-12 12:58:12,15.73232318,0.0002,53.2175,153.2372,28.3507,331.7622,-6.0634e-05,-9.134e-05,0.0,0 STARLINK-3388,1 51131U 22005AD  22043.54041680 -.00009134  00000-0 -60634-4 0  9991,2 51131  53.2175 153.2372 0002000  28.3507 331.7622 15.73232318  5178,6727.803000000001,91.531,351.014,348.32199999999995,0.0
51131.0,STARLINK-3388,PAYLOAD,2022-02-12 22:00:00,15.73102914,0.0002228,53.2173,151.3769,24.9973,307.1821,0.00017429,0.00023809,0.0,0 STARLINK-3388,1 51131U 22005AD  22043.91667824  .00023809  00000-0  17429-3 0  9992,2 51131  53.2173 151.3769 0002228  24.9973 307.1821 15.73102914  5239,6728.172,91.539,351.536,348.538,0.0
51131.0,STARLINK-3388,PAYLOAD,2022-02-13 04:00:01,15.73204686,0.000233,53.2173,150.1231,37.1862,271.4907,2.2079e-05,2.479e-05,0.0,0 STARLINK-3388,1 51131U 22005AD  22044.16668981  .00002479  00000-0  22079-4 0  9993,2 51131  53.2173 150.1231 0002330  37.1862 271.4907 15.73204686  5278,6727.882,91.533,351.314,348.17900000000014,0.0
51131.0,STARLINK-3388,PAYLOAD,2022-02-13 12:00:00,15.73177693,0.0002314,53.2179,148.4905,28.7762,9.0427,0.00010204,0.0001371,0.0,0 STARLINK-3388,1 51131U 22005AD  22044.50001157  .00013710  00000-0  10204-3 0  9993,2 51131  53.2179 148.4905 0002314  28.7762   9.0427 15.73177693  5324,6727.959,91.534,351.381,348.267,0.0
